[{"OBJECT_NAME":"STARLINK-1212","OBJECT_ID":"2020-012AX","EPOCH":"2026-03-10T00:00:02.999808","MEAN_MOTION":15.52195676,"ECCENTRICITY":0.00060327,"INCLINATION":53.0499,"RA_OF_ASC_NODE":348.596,"ARG_OF_PERICENTER":115.9645,"MEAN_ANOMALY":356.8868,"EPHEMERIS_TYPE":0,"CLASSIFICATION_TYPE":"U","NORAD_CAT_ID":45223,"ELEMENT_SET_NO":999,"REV_AT_EPOCH":585,"BSTAR":0.0014830065,"MEAN_MOTION_DOT":0.00092073,"MEAN_MOTION_DDOT":0},{"OBJECT_NAME":"FLOCK 4Q-30","OBJECT_ID":"2023-174AG","EPOCH":"2026-03-09T17:59:31.710048","MEAN_MOTION":15.50633546,"ECCENTRICITY":0.00073196,"INCLINATION":97.3945,"RA_OF_ASC_NODE":157.9303,"ARG_OF_PERICENTER":149.9876,"MEAN_ANOMALY":210.1797,"EPHEMERIS_TYPE":0,"CLASSIFICATION_TYPE":"U","NORAD_CAT_ID":58286,"ELEMENT_SET_NO":999,"REV_AT_EPOCH":13035,"BSTAR":0.0006309198,"MEAN_MOTION_DOT":0.00036209,"MEAN_MOTION_DDOT":0}]
